{
    "links": {
        "self": "http://www.neowsapp.com/rest/v1/neo/3769884?api_key=iIulBulltgU6a56xZRHN4H3l9WmuAYTsLGpBGhQ2"
    },
    "id": "3769884",
    "neo_reference_id": "3769884",
    "name": "(2017 DX35)",
    "designation": "2017 DX35",
    "nasa_jpl_url": "http://ssd.jpl.nasa.gov/sbdb.cgi?sstr=3769884",
    "absolute_magnitude_h": 27.1,
    "estimated_diameter": {
        "kilometers": {
            "estimated_diameter_min": 0.0101054342,
            "estimated_diameter_max": 0.0225964377
        },
        "meters": {
            "estimated_diameter_min": 10.1054341542,
            "estimated_diameter_max": 22.5964377109
        },
        "miles": {
            "estimated_diameter_min": 0.0062792237,
            "estimated_diameter_max": 0.0140407711
        },
        "feet": {
            "estimated_diameter_min": 33.1543125905,
            "estimated_diameter_max": 74.1352966996
        }
    },
    "is_potentially_hazardous_asteroid": false,
    "close_approach_data": [
        {
            "close_approach_date": "1959-01-25",
            "close_approach_date_full": "1959-Jan-25 20:24",
            "epoch_date_close_approach": -345008160000,
            "relative_velocity": {
                "kilometers_per_second": "12.3317991989",
                "kilometers_per_hour": "44394.4771159662",
                "miles_per_hour": "27585.0016279736"
            },
            "miss_distance": {
                "astronomical": "0.3005222405",
                "lunar": "116.9031515545",
                "kilometers": "44957487.066427735",
                "miles": "27935287.086603343"
            },
            "orbiting_body": "Earth"
        },
        {
            "close_approach_date": "1964-04-14",
            "close_approach_date_full": "1964-Apr-14 21:24",
            "epoch_date_close_approach": -180326160000,
            "relative_velocity": {
                "kilometers_per_second": "16.0373974276",
                "kilometers_per_hour": "57734.630739522",
                "miles_per_hour": "35874.0543058991"
            },
            "miss_distance": {
                "astronomical": "0.4379632716",
                "lunar": "170.3677126524",
                "kilometers": "65518372.569591492",
                "miles": "40711228.9099749096"
            },
            "orbiting_body": "Earth"
        },
        {
            "close_approach_date": "2017-02-25",
            "close_approach_date_full": "2017-Feb-25 10:26",
            "epoch_date_close_approach": 1488018360000,
            "relative_velocity": {
                "kilometers_per_second": "5.6796762858",
                "kilometers_per_hour": "20446.834629044",
                "miles_per_hour": "12704.8678838079"
            },
            "miss_distance": {
                "astronomical": "0.0340601923",
                "lunar": "13.2494148047",
                "kilometers": "5095332.219870401",
                "miles": "3166092.6277614938"
            },
            "orbiting_body": "Earth"
        },
        {
            "close_approach_date": "2029-01-27",
            "close_approach_date_full": "2029-Jan-27 01:29",
            "epoch_date_close_approach": 1864171740000,
            "relative_velocity": {
                "kilometers_per_second": "11.9188240633",
                "kilometers_per_hour": "42907.7666280395",
                "miles_per_hour": "26661.2175472949"
            },
            "miss_distance": {
                "astronomical": "0.2847999438",
                "lunar": "110.7871781382",
                "kilometers": "42605464.968599706",
                "miles": "26473808.3246837028"
            },
            "orbiting_body": "Earth"
        },
        {
            "close_approach_date": "2070-01-17",
            "close_approach_date_full": "2070-Jan-17 16:44",
            "epoch_date_close_approach": 3157202640000,
            "relative_velocity": {
                "kilometers_per_second": "16.5804745934",
                "kilometers_per_hour": "59689.7085363037",
                "miles_per_hour": "37088.8636180161"
            },
            "miss_distance": {
                "astronomical": "0.4456465605",
                "lunar": "173.3565120345",
                "kilometers": "66667776.223626135",
                "miles": "41425435.222405263"
            },
            "orbiting_body": "Earth"
        }
    ],
    "orbital_data": {
        "orbit_id": "3",
        "orbit_determination_date": "2017-04-06 08:20:00",
        "first_observation_date": "2017-02-22",
        "last_observation_date": "2017-02-27",
        "data_arc_in_days": 5,
        "observations_used": 27,
        "orbit_uncertainty": "7",
        "minimum_orbit_intersection": ".0340023",
        "jupiter_tisserand_invariant": "4.636",
        "epoch_osculation": "2459000.5",
        "eccentricity": ".2834923940787379",
        "semi_major_axis": "1.428725975478063",
        "inclination": "8.353315407728171",
        "ascending_node_longitude": "334.7204346431205",
        "orbital_period": "623.7661998448876",
        "perihelion_distance": "1.023693028207307",
        "perihelion_argument": "183.0887988923112",
        "aphelion_distance": "1.83375892274882",
        "perihelion_time": "2459058.487258872825",
        "mean_anomaly": "326.5332728842823",
        "mean_motion": ".5771393193307387",
        "equinox": "J2000",
        "orbit_class": {
            "orbit_class_type": "AMO",
            "orbit_class_description": "Near-Earth asteroid orbits similar to that of 1221 Amor",
            "orbit_class_range": "1.017 AU < q (perihelion) < 1.3 AU"
        }
    },
    "is_sentry_object": false
}